<?xml version="1.0" encoding="UTF-8"?>
<!-- A made-up route for trying TrailCast. It is not a real recording. -->
<gpx version="1.1" creator="TrailCast sample" xmlns="http://www.topografix.com/GPX/1/1">
  <metadata><name>Sample ride north of Manali</name></metadata>
  <trk>
    <name>Sample ride north of Manali</name>
    <trkseg>
      <trkpt lat="32.243313" lon="77.189241"><ele>2050.0</ele><time>2026-05-14T05:30:00Z</time></trkpt>
      <trkpt lat="32.243422" lon="77.189293"><ele>2052.3</ele><time>2026-05-14T05:30:02Z</time></trkpt>
      <trkpt lat="32.243527" lon="77.189355"><ele>2054.6</ele><time>2026-05-14T05:30:04Z</time></trkpt>
      <trkpt lat="32.243626" lon="77.189428"><ele>2057.0</ele><time>2026-05-14T05:30:06Z</time></trkpt>
      <trkpt lat="32.243720" lon="77.189509"><ele>2059.2</ele><time>2026-05-14T05:30:08Z</time></trkpt>
      <trkpt lat="32.243808" lon="77.189598"><ele>2061.5</ele><time>2026-05-14T05:30:10Z</time></trkpt>
      <trkpt lat="32.243888" lon="77.189695"><ele>2063.8</ele><time>2026-05-14T05:30:12Z</time></trkpt>
      <trkpt lat="32.243962" lon="77.189798"><ele>2066.0</ele><time>2026-05-14T05:30:14Z</time></trkpt>
      <trkpt lat="32.244030" lon="77.189906"><ele>2068.1</ele><time>2026-05-14T05:30:16Z</time></trkpt>
      <trkpt lat="32.244092" lon="77.190020"><ele>2070.2</ele><time>2026-05-14T05:30:18Z</time></trkpt>
      <trkpt lat="32.244148" lon="77.190137"><ele>2072.3</ele><time>2026-05-14T05:30:20Z</time></trkpt>
      <trkpt lat="32.244200" lon="77.190257"><ele>2074.3</ele><time>2026-05-14T05:30:22Z</time></trkpt>
      <trkpt lat="32.244248" lon="77.190379"><ele>2076.3</ele><time>2026-05-14T05:30:24Z</time></trkpt>
      <trkpt lat="32.244294" lon="77.190504"><ele>2078.2</ele><time>2026-05-14T05:30:26Z</time></trkpt>
      <trkpt lat="32.244337" lon="77.190631"><ele>2080.0</ele><time>2026-05-14T05:30:28Z</time></trkpt>
      <trkpt lat="32.244379" lon="77.190759"><ele>2081.8</ele><time>2026-05-14T05:30:30Z</time></trkpt>
      <trkpt lat="32.244422" lon="77.190887"><ele>2083.5</ele><time>2026-05-14T05:30:32Z</time></trkpt>
      <trkpt lat="32.244465" lon="77.191017"><ele>2085.2</ele><time>2026-05-14T05:30:34Z</time></trkpt>
      <trkpt lat="32.244511" lon="77.191146"><ele>2086.8</ele><time>2026-05-14T05:30:36Z</time></trkpt>
      <trkpt lat="32.244559" lon="77.191276"><ele>2088.3</ele><time>2026-05-14T05:30:38Z</time></trkpt>
      <trkpt lat="32.244610" lon="77.191406"><ele>2089.8</ele><time>2026-05-14T05:30:40Z</time></trkpt>
      <trkpt lat="32.244665" lon="77.191534"><ele>2091.1</ele><time>2026-05-14T05:30:42Z</time></trkpt>
      <trkpt lat="32.244724" lon="77.191662"><ele>2092.5</ele><time>2026-05-14T05:30:44Z</time></trkpt>
      <trkpt lat="32.244788" lon="77.191789"><ele>2093.7</ele><time>2026-05-14T05:30:46Z</time></trkpt>
      <trkpt lat="32.244856" lon="77.191914"><ele>2095.0</ele><time>2026-05-14T05:30:48Z</time></trkpt>
      <trkpt lat="32.244930" lon="77.192037"><ele>2096.1</ele><time>2026-05-14T05:30:50Z</time></trkpt>
      <trkpt lat="32.245007" lon="77.192159"><ele>2097.2</ele><time>2026-05-14T05:30:52Z</time></trkpt>
      <trkpt lat="32.245090" lon="77.192278"><ele>2098.3</ele><time>2026-05-14T05:30:54Z</time></trkpt>
      <trkpt lat="32.245176" lon="77.192396"><ele>2099.3</ele><time>2026-05-14T05:30:56Z</time></trkpt>
      <trkpt lat="32.245265" lon="77.192511"><ele>2100.3</ele><time>2026-05-14T05:30:58Z</time></trkpt>
      <trkpt lat="32.245358" lon="77.192626"><ele>2101.2</ele><time>2026-05-14T05:31:00Z</time></trkpt>
      <trkpt lat="32.245454" lon="77.192739"><ele>2102.1</ele><time>2026-05-14T05:31:02Z</time></trkpt>
      <trkpt lat="32.245551" lon="77.192851"><ele>2103.0</ele><time>2026-05-14T05:31:04Z</time></trkpt>
      <trkpt lat="32.245650" lon="77.192963"><ele>2103.9</ele><time>2026-05-14T05:31:06Z</time></trkpt>
      <trkpt lat="32.245749" lon="77.193076"><ele>2104.8</ele><time>2026-05-14T05:31:08Z</time></trkpt>
      <trkpt lat="32.245849" lon="77.193189"><ele>2105.7</ele><time>2026-05-14T05:31:10Z</time></trkpt>
      <trkpt lat="32.245947" lon="77.193304"><ele>2106.6</ele><time>2026-05-14T05:31:12Z</time></trkpt>
      <trkpt lat="32.246045" lon="77.193420"><ele>2107.4</ele><time>2026-05-14T05:31:14Z</time></trkpt>
      <trkpt lat="32.246140" lon="77.193539"><ele>2108.3</ele><time>2026-05-14T05:31:16Z</time></trkpt>
      <trkpt lat="32.246233" lon="77.193661"><ele>2109.3</ele><time>2026-05-14T05:31:18Z</time></trkpt>
      <trkpt lat="32.246322" lon="77.193786"><ele>2110.2</ele><time>2026-05-14T05:31:20Z</time></trkpt>
      <trkpt lat="32.246408" lon="77.193914"><ele>2111.2</ele><time>2026-05-14T05:31:22Z</time></trkpt>
      <trkpt lat="32.246489" lon="77.194046"><ele>2112.2</ele><time>2026-05-14T05:31:24Z</time></trkpt>
      <trkpt lat="32.246565" lon="77.194181"><ele>2113.2</ele><time>2026-05-14T05:31:26Z</time></trkpt>
      <trkpt lat="32.246637" lon="77.194320"><ele>2114.3</ele><time>2026-05-14T05:31:28Z</time></trkpt>
      <trkpt lat="32.246702" lon="77.194461"><ele>2115.5</ele><time>2026-05-14T05:31:30Z</time></trkpt>
      <trkpt lat="32.246762" lon="77.194606"><ele>2116.7</ele><time>2026-05-14T05:31:32Z</time></trkpt>
      <trkpt lat="32.246817" lon="77.194753"><ele>2118.0</ele><time>2026-05-14T05:31:34Z</time></trkpt>
      <trkpt lat="32.246867" lon="77.194902"><ele>2119.3</ele><time>2026-05-14T05:31:36Z</time></trkpt>
      <trkpt lat="32.246913" lon="77.195053"><ele>2120.7</ele><time>2026-05-14T05:31:38Z</time></trkpt>
      <trkpt lat="32.246954" lon="77.195205"><ele>2122.1</ele><time>2026-05-14T05:31:40Z</time></trkpt>
      <trkpt lat="32.246992" lon="77.195359"><ele>2123.6</ele><time>2026-05-14T05:31:42Z</time></trkpt>
      <trkpt lat="32.247028" lon="77.195513"><ele>2125.2</ele><time>2026-05-14T05:31:44Z</time></trkpt>
      <trkpt lat="32.247063" lon="77.195668"><ele>2126.8</ele><time>2026-05-14T05:31:46Z</time></trkpt>
      <trkpt lat="32.247098" lon="77.195823"><ele>2128.6</ele><time>2026-05-14T05:31:48Z</time></trkpt>
      <trkpt lat="32.247134" lon="77.195979"><ele>2130.3</ele><time>2026-05-14T05:31:50Z</time></trkpt>
      <trkpt lat="32.247172" lon="77.196133"><ele>2132.2</ele><time>2026-05-14T05:31:52Z</time></trkpt>
      <trkpt lat="32.247214" lon="77.196287"><ele>2134.1</ele><time>2026-05-14T05:31:54Z</time></trkpt>
      <trkpt lat="32.247261" lon="77.196440"><ele>2136.0</ele><time>2026-05-14T05:31:56Z</time></trkpt>
      <trkpt lat="32.247315" lon="77.196590"><ele>2138.0</ele><time>2026-05-14T05:31:58Z</time></trkpt>
      <trkpt lat="32.247375" lon="77.196738"><ele>2140.1</ele><time>2026-05-14T05:32:00Z</time></trkpt>
      <trkpt lat="32.247444" lon="77.196883"><ele>2142.2</ele><time>2026-05-14T05:32:02Z</time></trkpt>
      <trkpt lat="32.247523" lon="77.197022"><ele>2144.4</ele><time>2026-05-14T05:32:04Z</time></trkpt>
      <trkpt lat="32.247611" lon="77.197156"><ele>2146.6</ele><time>2026-05-14T05:32:06Z</time></trkpt>
      <trkpt lat="32.247709" lon="77.197282"><ele>2148.8</ele><time>2026-05-14T05:32:08Z</time></trkpt>
      <trkpt lat="32.247817" lon="77.197400"><ele>2151.1</ele><time>2026-05-14T05:32:10Z</time></trkpt>
      <trkpt lat="32.247935" lon="77.197508"><ele>2153.4</ele><time>2026-05-14T05:32:12Z</time></trkpt>
      <trkpt lat="32.248062" lon="77.197605"><ele>2155.7</ele><time>2026-05-14T05:32:14Z</time></trkpt>
      <trkpt lat="32.248197" lon="77.197689"><ele>2158.0</ele><time>2026-05-14T05:32:16Z</time></trkpt>
      <trkpt lat="32.248340" lon="77.197761"><ele>2160.3</ele><time>2026-05-14T05:32:18Z</time></trkpt>
      <trkpt lat="32.248488" lon="77.197819"><ele>2162.6</ele><time>2026-05-14T05:32:20Z</time></trkpt>
      <trkpt lat="32.248641" lon="77.197863"><ele>2165.0</ele><time>2026-05-14T05:32:22Z</time></trkpt>
      <trkpt lat="32.248797" lon="77.197893"><ele>2167.3</ele><time>2026-05-14T05:32:24Z</time></trkpt>
      <trkpt lat="32.248955" lon="77.197910"><ele>2169.6</ele><time>2026-05-14T05:32:26Z</time></trkpt>
      <trkpt lat="32.249114" lon="77.197913"><ele>2171.8</ele><time>2026-05-14T05:32:28Z</time></trkpt>
      <trkpt lat="32.249272" lon="77.197904"><ele>2174.1</ele><time>2026-05-14T05:32:30Z</time></trkpt>
      <trkpt lat="32.249428" lon="77.197883"><ele>2176.3</ele><time>2026-05-14T05:32:32Z</time></trkpt>
      <trkpt lat="32.249583" lon="77.197853"><ele>2178.5</ele><time>2026-05-14T05:32:34Z</time></trkpt>
      <trkpt lat="32.249735" lon="77.197814"><ele>2180.6</ele><time>2026-05-14T05:32:36Z</time></trkpt>
      <trkpt lat="32.249884" lon="77.197767"><ele>2182.7</ele><time>2026-05-14T05:32:38Z</time></trkpt>
      <trkpt lat="32.250031" lon="77.197713"><ele>2184.7</ele><time>2026-05-14T05:32:40Z</time></trkpt>
      <trkpt lat="32.250176" lon="77.197655"><ele>2186.7</ele><time>2026-05-14T05:32:42Z</time></trkpt>
      <trkpt lat="32.250319" lon="77.197594"><ele>2188.6</ele><time>2026-05-14T05:32:44Z</time></trkpt>
      <trkpt lat="32.250460" lon="77.197529"><ele>2190.4</ele><time>2026-05-14T05:32:46Z</time></trkpt>
      <trkpt lat="32.250600" lon="77.197464"><ele>2192.2</ele><time>2026-05-14T05:32:48Z</time></trkpt>
      <trkpt lat="32.250739" lon="77.197398"><ele>2193.9</ele><time>2026-05-14T05:32:50Z</time></trkpt>
      <trkpt lat="32.250878" lon="77.197332"><ele>2195.6</ele><time>2026-05-14T05:32:52Z</time></trkpt>
      <trkpt lat="32.251017" lon="77.197269"><ele>2197.2</ele><time>2026-05-14T05:32:54Z</time></trkpt>
      <trkpt lat="32.251156" lon="77.197207"><ele>2198.7</ele><time>2026-05-14T05:32:56Z</time></trkpt>
      <trkpt lat="32.251296" lon="77.197149"><ele>2200.2</ele><time>2026-05-14T05:32:58Z</time></trkpt>
      <trkpt lat="32.251437" lon="77.197094"><ele>2201.6</ele><time>2026-05-14T05:33:00Z</time></trkpt>
      <trkpt lat="32.251579" lon="77.197043"><ele>2202.9</ele><time>2026-05-14T05:33:02Z</time></trkpt>
      <trkpt lat="32.251721" lon="77.196996"><ele>2204.2</ele><time>2026-05-14T05:33:04Z</time></trkpt>
      <trkpt lat="32.251864" lon="77.196954"><ele>2205.4</ele><time>2026-05-14T05:33:06Z</time></trkpt>
      <trkpt lat="32.252008" lon="77.196916"><ele>2206.6</ele><time>2026-05-14T05:33:08Z</time></trkpt>
      <trkpt lat="32.252152" lon="77.196883"><ele>2207.7</ele><time>2026-05-14T05:33:10Z</time></trkpt>
      <trkpt lat="32.252296" lon="77.196853"><ele>2208.7</ele><time>2026-05-14T05:33:12Z</time></trkpt>
      <trkpt lat="32.252440" lon="77.196828"><ele>2209.8</ele><time>2026-05-14T05:33:14Z</time></trkpt>
      <trkpt lat="32.252583" lon="77.196805"><ele>2210.7</ele><time>2026-05-14T05:33:16Z</time></trkpt>
      <trkpt lat="32.252727" lon="77.196784"><ele>2211.7</ele><time>2026-05-14T05:33:18Z</time></trkpt>
      <trkpt lat="32.252869" lon="77.196766"><ele>2212.6</ele><time>2026-05-14T05:33:20Z</time></trkpt>
      <trkpt lat="32.253011" lon="77.196749"><ele>2213.5</ele><time>2026-05-14T05:33:22Z</time></trkpt>
      <trkpt lat="32.253153" lon="77.196731"><ele>2214.4</ele><time>2026-05-14T05:33:24Z</time></trkpt>
      <trkpt lat="32.253293" lon="77.196714"><ele>2215.3</ele><time>2026-05-14T05:33:26Z</time></trkpt>
      <trkpt lat="32.253432" lon="77.196695"><ele>2216.2</ele><time>2026-05-14T05:33:28Z</time></trkpt>
      <trkpt lat="32.253571" lon="77.196673"><ele>2217.0</ele><time>2026-05-14T05:33:30Z</time></trkpt>
      <trkpt lat="32.253707" lon="77.196649"><ele>2217.9</ele><time>2026-05-14T05:33:32Z</time></trkpt>
      <trkpt lat="32.253843" lon="77.196622"><ele>2218.8</ele><time>2026-05-14T05:33:34Z</time></trkpt>
      <trkpt lat="32.253976" lon="77.196590"><ele>2219.7</ele><time>2026-05-14T05:33:36Z</time></trkpt>
      <trkpt lat="32.254107" lon="77.196554"><ele>2220.7</ele><time>2026-05-14T05:33:38Z</time></trkpt>
      <trkpt lat="32.254236" lon="77.196513"><ele>2221.6</ele><time>2026-05-14T05:33:40Z</time></trkpt>
      <trkpt lat="32.254362" lon="77.196466"><ele>2222.7</ele><time>2026-05-14T05:33:42Z</time></trkpt>
      <trkpt lat="32.254485" lon="77.196415"><ele>2223.7</ele><time>2026-05-14T05:33:44Z</time></trkpt>
      <trkpt lat="32.254605" lon="77.196358"><ele>2224.8</ele><time>2026-05-14T05:33:46Z</time></trkpt>
      <trkpt lat="32.254721" lon="77.196297"><ele>2225.9</ele><time>2026-05-14T05:33:48Z</time></trkpt>
      <trkpt lat="32.254834" lon="77.196231"><ele>2227.1</ele><time>2026-05-14T05:33:50Z</time></trkpt>
      <trkpt lat="32.254943" lon="77.196160"><ele>2228.4</ele><time>2026-05-14T05:33:52Z</time></trkpt>
      <trkpt lat="32.255048" lon="77.196086"><ele>2229.7</ele><time>2026-05-14T05:33:54Z</time></trkpt>
      <trkpt lat="32.255149" lon="77.196009"><ele>2231.1</ele><time>2026-05-14T05:33:56Z</time></trkpt>
      <trkpt lat="32.255248" lon="77.195930"><ele>2232.5</ele><time>2026-05-14T05:33:58Z</time></trkpt>
      <trkpt lat="32.255344" lon="77.195848"><ele>2234.0</ele><time>2026-05-14T05:34:00Z</time></trkpt>
      <trkpt lat="32.255437" lon="77.195766"><ele>2235.6</ele><time>2026-05-14T05:34:02Z</time></trkpt>
      <trkpt lat="32.255529" lon="77.195683"><ele>2237.2</ele><time>2026-05-14T05:34:04Z</time></trkpt>
      <trkpt lat="32.255620" lon="77.195600"><ele>2238.9</ele><time>2026-05-14T05:34:06Z</time></trkpt>
      <trkpt lat="32.255710" lon="77.195519"><ele>2240.7</ele><time>2026-05-14T05:34:08Z</time></trkpt>
      <trkpt lat="32.255801" lon="77.195439"><ele>2242.5</ele><time>2026-05-14T05:34:10Z</time></trkpt>
      <trkpt lat="32.255892" lon="77.195362"><ele>2244.4</ele><time>2026-05-14T05:34:12Z</time></trkpt>
      <trkpt lat="32.255986" lon="77.195289"><ele>2246.4</ele><time>2026-05-14T05:34:14Z</time></trkpt>
      <trkpt lat="32.256081" lon="77.195220"><ele>2248.4</ele><time>2026-05-14T05:34:16Z</time></trkpt>
      <trkpt lat="32.256178" lon="77.195156"><ele>2250.4</ele><time>2026-05-14T05:34:18Z</time></trkpt>
      <trkpt lat="32.256278" lon="77.195098"><ele>2252.6</ele><time>2026-05-14T05:34:20Z</time></trkpt>
      <trkpt lat="32.256381" lon="77.195046"><ele>2254.7</ele><time>2026-05-14T05:34:22Z</time></trkpt>
      <trkpt lat="32.256486" lon="77.195003"><ele>2256.9</ele><time>2026-05-14T05:34:24Z</time></trkpt>
      <trkpt lat="32.256593" lon="77.194967"><ele>2259.1</ele><time>2026-05-14T05:34:26Z</time></trkpt>
      <trkpt lat="32.256701" lon="77.194941"><ele>2261.4</ele><time>2026-05-14T05:34:28Z</time></trkpt>
      <trkpt lat="32.256811" lon="77.194925"><ele>2263.7</ele><time>2026-05-14T05:34:30Z</time></trkpt>
      <trkpt lat="32.256920" lon="77.194918"><ele>2266.0</ele><time>2026-05-14T05:34:32Z</time></trkpt>
      <trkpt lat="32.257029" lon="77.194921"><ele>2268.3</ele><time>2026-05-14T05:34:34Z</time></trkpt>
      <trkpt lat="32.257136" lon="77.194934"><ele>2270.6</ele><time>2026-05-14T05:34:36Z</time></trkpt>
      <trkpt lat="32.257241" lon="77.194956"><ele>2273.0</ele><time>2026-05-14T05:34:38Z</time></trkpt>
      <trkpt lat="32.257342" lon="77.194988"><ele>2275.3</ele><time>2026-05-14T05:34:40Z</time></trkpt>
      <trkpt lat="32.257439" lon="77.195028"><ele>2277.6</ele><time>2026-05-14T05:34:42Z</time></trkpt>
      <trkpt lat="32.257531" lon="77.195076"><ele>2279.9</ele><time>2026-05-14T05:34:44Z</time></trkpt>
      <trkpt lat="32.257619" lon="77.195131"><ele>2282.2</ele><time>2026-05-14T05:34:46Z</time></trkpt>
      <trkpt lat="32.257701" lon="77.195192"><ele>2284.4</ele><time>2026-05-14T05:34:48Z</time></trkpt>
      <trkpt lat="32.257778" lon="77.195258"><ele>2286.6</ele><time>2026-05-14T05:34:50Z</time></trkpt>
      <trkpt lat="32.257850" lon="77.195328"><ele>2288.8</ele><time>2026-05-14T05:34:52Z</time></trkpt>
      <trkpt lat="32.257917" lon="77.195402"><ele>2290.9</ele><time>2026-05-14T05:34:54Z</time></trkpt>
      <trkpt lat="32.257980" lon="77.195478"><ele>2293.0</ele><time>2026-05-14T05:34:56Z</time></trkpt>
      <trkpt lat="32.258039" lon="77.195556"><ele>2295.0</ele><time>2026-05-14T05:34:58Z</time></trkpt>
      <trkpt lat="32.258095" lon="77.195636"><ele>2297.0</ele><time>2026-05-14T05:35:00Z</time></trkpt>
      <trkpt lat="32.258148" lon="77.195716"><ele>2298.9</ele><time>2026-05-14T05:35:02Z</time></trkpt>
      <trkpt lat="32.258199" lon="77.195797"><ele>2300.8</ele><time>2026-05-14T05:35:04Z</time></trkpt>
      <trkpt lat="32.258249" lon="77.195877"><ele>2302.6</ele><time>2026-05-14T05:35:06Z</time></trkpt>
      <trkpt lat="32.258298" lon="77.195958"><ele>2304.3</ele><time>2026-05-14T05:35:08Z</time></trkpt>
      <trkpt lat="32.258346" lon="77.196037"><ele>2306.0</ele><time>2026-05-14T05:35:10Z</time></trkpt>
      <trkpt lat="32.258395" lon="77.196116"><ele>2307.6</ele><time>2026-05-14T05:35:12Z</time></trkpt>
      <trkpt lat="32.258445" lon="77.196193"><ele>2309.1</ele><time>2026-05-14T05:35:14Z</time></trkpt>
      <trkpt lat="32.258495" lon="77.196269"><ele>2310.6</ele><time>2026-05-14T05:35:16Z</time></trkpt>
      <trkpt lat="32.258547" lon="77.196343"><ele>2312.0</ele><time>2026-05-14T05:35:18Z</time></trkpt>
      <trkpt lat="32.258600" lon="77.196415"><ele>2313.3</ele><time>2026-05-14T05:35:20Z</time></trkpt>
      <trkpt lat="32.258654" lon="77.196486"><ele>2314.6</ele><time>2026-05-14T05:35:22Z</time></trkpt>
      <trkpt lat="32.258710" lon="77.196555"><ele>2315.8</ele><time>2026-05-14T05:35:24Z</time></trkpt>
      <trkpt lat="32.258767" lon="77.196622"><ele>2317.0</ele><time>2026-05-14T05:35:26Z</time></trkpt>
      <trkpt lat="32.258825" lon="77.196687"><ele>2318.1</ele><time>2026-05-14T05:35:28Z</time></trkpt>
      <trkpt lat="32.258884" lon="77.196750"><ele>2319.2</ele><time>2026-05-14T05:35:30Z</time></trkpt>
      <trkpt lat="32.258944" lon="77.196812"><ele>2320.2</ele><time>2026-05-14T05:35:32Z</time></trkpt>
      <trkpt lat="32.259004" lon="77.196873"><ele>2321.2</ele><time>2026-05-14T05:35:34Z</time></trkpt>
      <trkpt lat="32.259065" lon="77.196932"><ele>2322.2</ele><time>2026-05-14T05:35:36Z</time></trkpt>
      <trkpt lat="32.259126" lon="77.196991"><ele>2323.1</ele><time>2026-05-14T05:35:38Z</time></trkpt>
      <trkpt lat="32.259186" lon="77.197050"><ele>2324.0</ele><time>2026-05-14T05:35:40Z</time></trkpt>
      <trkpt lat="32.259246" lon="77.197109"><ele>2324.9</ele><time>2026-05-14T05:35:42Z</time></trkpt>
      <trkpt lat="32.259305" lon="77.197168"><ele>2325.8</ele><time>2026-05-14T05:35:44Z</time></trkpt>
      <trkpt lat="32.259362" lon="77.197227"><ele>2326.6</ele><time>2026-05-14T05:35:46Z</time></trkpt>
      <trkpt lat="32.259418" lon="77.197288"><ele>2327.5</ele><time>2026-05-14T05:35:48Z</time></trkpt>
      <trkpt lat="32.259472" lon="77.197350"><ele>2328.4</ele><time>2026-05-14T05:35:50Z</time></trkpt>
      <trkpt lat="32.259524" lon="77.197414"><ele>2329.3</ele><time>2026-05-14T05:35:52Z</time></trkpt>
      <trkpt lat="32.259573" lon="77.197479"><ele>2330.2</ele><time>2026-05-14T05:35:54Z</time></trkpt>
      <trkpt lat="32.259618" lon="77.197547"><ele>2331.1</ele><time>2026-05-14T05:35:56Z</time></trkpt>
      <trkpt lat="32.259661" lon="77.197616"><ele>2332.1</ele><time>2026-05-14T05:35:58Z</time></trkpt>
      <trkpt lat="32.259700" lon="77.197687"><ele>2333.1</ele><time>2026-05-14T05:36:00Z</time></trkpt>
      <trkpt lat="32.259735" lon="77.197759"><ele>2334.2</ele><time>2026-05-14T05:36:02Z</time></trkpt>
      <trkpt lat="32.259767" lon="77.197833"><ele>2335.3</ele><time>2026-05-14T05:36:04Z</time></trkpt>
      <trkpt lat="32.259795" lon="77.197909"><ele>2336.4</ele><time>2026-05-14T05:36:06Z</time></trkpt>
      <trkpt lat="32.259818" lon="77.197985"><ele>2337.6</ele><time>2026-05-14T05:36:08Z</time></trkpt>
      <trkpt lat="32.259839" lon="77.198063"><ele>2338.8</ele><time>2026-05-14T05:36:10Z</time></trkpt>
      <trkpt lat="32.259855" lon="77.198141"><ele>2340.1</ele><time>2026-05-14T05:36:12Z</time></trkpt>
      <trkpt lat="32.259869" lon="77.198220"><ele>2341.5</ele><time>2026-05-14T05:36:14Z</time></trkpt>
      <trkpt lat="32.259879" lon="77.198299"><ele>2342.9</ele><time>2026-05-14T05:36:16Z</time></trkpt>
      <trkpt lat="32.259888" lon="77.198379"><ele>2344.4</ele><time>2026-05-14T05:36:18Z</time></trkpt>
      <trkpt lat="32.259894" lon="77.198459"><ele>2346.0</ele><time>2026-05-14T05:36:20Z</time></trkpt>
      <trkpt lat="32.259900" lon="77.198539"><ele>2347.6</ele><time>2026-05-14T05:36:22Z</time></trkpt>
      <trkpt lat="32.259904" lon="77.198619"><ele>2349.3</ele><time>2026-05-14T05:36:24Z</time></trkpt>
      <trkpt lat="32.259909" lon="77.198699"><ele>2351.1</ele><time>2026-05-14T05:36:26Z</time></trkpt>
      <trkpt lat="32.259915" lon="77.198779"><ele>2352.9</ele><time>2026-05-14T05:36:28Z</time></trkpt>
      <trkpt lat="32.259922" lon="77.198859"><ele>2354.8</ele><time>2026-05-14T05:36:30Z</time></trkpt>
      <trkpt lat="32.259932" lon="77.198939"><ele>2356.7</ele><time>2026-05-14T05:36:32Z</time></trkpt>
      <trkpt lat="32.259944" lon="77.199019"><ele>2358.7</ele><time>2026-05-14T05:36:34Z</time></trkpt>
      <trkpt lat="32.259961" lon="77.199099"><ele>2360.8</ele><time>2026-05-14T05:36:36Z</time></trkpt>
      <trkpt lat="32.259981" lon="77.199177"><ele>2362.9</ele><time>2026-05-14T05:36:38Z</time></trkpt>
      <trkpt lat="32.260006" lon="77.199255"><ele>2365.0</ele><time>2026-05-14T05:36:40Z</time></trkpt>
      <trkpt lat="32.260037" lon="77.199331"><ele>2367.2</ele><time>2026-05-14T05:36:42Z</time></trkpt>
      <trkpt lat="32.260073" lon="77.199405"><ele>2369.5</ele><time>2026-05-14T05:36:44Z</time></trkpt>
      <trkpt lat="32.260115" lon="77.199476"><ele>2371.7</ele><time>2026-05-14T05:36:46Z</time></trkpt>
      <trkpt lat="32.260163" lon="77.199544"><ele>2374.0</ele><time>2026-05-14T05:36:48Z</time></trkpt>
      <trkpt lat="32.260217" lon="77.199607"><ele>2376.3</ele><time>2026-05-14T05:36:50Z</time></trkpt>
      <trkpt lat="32.260276" lon="77.199666"><ele>2378.6</ele><time>2026-05-14T05:36:52Z</time></trkpt>
      <trkpt lat="32.260341" lon="77.199720"><ele>2380.9</ele><time>2026-05-14T05:36:54Z</time></trkpt>
      <trkpt lat="32.260411" lon="77.199767"><ele>2383.3</ele><time>2026-05-14T05:36:56Z</time></trkpt>
      <trkpt lat="32.260486" lon="77.199809"><ele>2385.6</ele><time>2026-05-14T05:36:58Z</time></trkpt>
      <trkpt lat="32.260564" lon="77.199844"><ele>2387.9</ele><time>2026-05-14T05:37:00Z</time></trkpt>
      <trkpt lat="32.260645" lon="77.199872"><ele>2390.2</ele><time>2026-05-14T05:37:02Z</time></trkpt>
      <trkpt lat="32.260729" lon="77.199895"><ele>2392.5</ele><time>2026-05-14T05:37:04Z</time></trkpt>
      <trkpt lat="32.260815" lon="77.199910"><ele>2394.7</ele><time>2026-05-14T05:37:06Z</time></trkpt>
      <trkpt lat="32.260902" lon="77.199920"><ele>2397.0</ele><time>2026-05-14T05:37:08Z</time></trkpt>
      <trkpt lat="32.260990" lon="77.199925"><ele>2399.1</ele><time>2026-05-14T05:37:10Z</time></trkpt>
      <trkpt lat="32.261080" lon="77.199924"><ele>2401.3</ele><time>2026-05-14T05:37:12Z</time></trkpt>
      <trkpt lat="32.261169" lon="77.199919"><ele>2403.4</ele><time>2026-05-14T05:37:14Z</time></trkpt>
      <trkpt lat="32.261259" lon="77.199910"><ele>2405.4</ele><time>2026-05-14T05:37:16Z</time></trkpt>
      <trkpt lat="32.261349" lon="77.199898"><ele>2407.4</ele><time>2026-05-14T05:37:18Z</time></trkpt>
      <trkpt lat="32.261440" lon="77.199884"><ele>2409.3</ele><time>2026-05-14T05:37:20Z</time></trkpt>
      <trkpt lat="32.261531" lon="77.199867"><ele>2411.2</ele><time>2026-05-14T05:37:22Z</time></trkpt>
      <trkpt lat="32.261623" lon="77.199850"><ele>2413.0</ele><time>2026-05-14T05:37:24Z</time></trkpt>
      <trkpt lat="32.261715" lon="77.199831"><ele>2414.7</ele><time>2026-05-14T05:37:26Z</time></trkpt>
      <trkpt lat="32.261808" lon="77.199813"><ele>2416.4</ele><time>2026-05-14T05:37:28Z</time></trkpt>
      <trkpt lat="32.261902" lon="77.199795"><ele>2418.0</ele><time>2026-05-14T05:37:30Z</time></trkpt>
      <trkpt lat="32.261996" lon="77.199778"><ele>2419.5</ele><time>2026-05-14T05:37:32Z</time></trkpt>
      <trkpt lat="32.262092" lon="77.199762"><ele>2421.0</ele><time>2026-05-14T05:37:34Z</time></trkpt>
      <trkpt lat="32.262189" lon="77.199748"><ele>2422.4</ele><time>2026-05-14T05:37:36Z</time></trkpt>
      <trkpt lat="32.262287" lon="77.199736"><ele>2423.8</ele><time>2026-05-14T05:37:38Z</time></trkpt>
      <trkpt lat="32.262386" lon="77.199725"><ele>2425.1</ele><time>2026-05-14T05:37:40Z</time></trkpt>
      <trkpt lat="32.262487" lon="77.199717"><ele>2426.3</ele><time>2026-05-14T05:37:42Z</time></trkpt>
      <trkpt lat="32.262588" lon="77.199711"><ele>2427.5</ele><time>2026-05-14T05:37:44Z</time></trkpt>
      <trkpt lat="32.262690" lon="77.199707"><ele>2428.6</ele><time>2026-05-14T05:37:46Z</time></trkpt>
      <trkpt lat="32.262793" lon="77.199704"><ele>2429.7</ele><time>2026-05-14T05:37:48Z</time></trkpt>
      <trkpt lat="32.262897" lon="77.199703"><ele>2430.7</ele><time>2026-05-14T05:37:50Z</time></trkpt>
      <trkpt lat="32.263002" lon="77.199703"><ele>2431.7</ele><time>2026-05-14T05:37:52Z</time></trkpt>
      <trkpt lat="32.263108" lon="77.199703"><ele>2432.6</ele><time>2026-05-14T05:37:54Z</time></trkpt>
      <trkpt lat="32.263215" lon="77.199704"><ele>2433.6</ele><time>2026-05-14T05:37:56Z</time></trkpt>
      <trkpt lat="32.263323" lon="77.199703"><ele>2434.5</ele><time>2026-05-14T05:37:58Z</time></trkpt>
      <trkpt lat="32.263432" lon="77.199702"><ele>2435.4</ele><time>2026-05-14T05:38:00Z</time></trkpt>
      <trkpt lat="32.263542" lon="77.199698"><ele>2436.3</ele><time>2026-05-14T05:38:02Z</time></trkpt>
      <trkpt lat="32.263652" lon="77.199692"><ele>2437.1</ele><time>2026-05-14T05:38:04Z</time></trkpt>
      <trkpt lat="32.263764" lon="77.199682"><ele>2438.0</ele><time>2026-05-14T05:38:06Z</time></trkpt>
      <trkpt lat="32.263875" lon="77.199669"><ele>2438.9</ele><time>2026-05-14T05:38:08Z</time></trkpt>
      <trkpt lat="32.263988" lon="77.199651"><ele>2439.8</ele><time>2026-05-14T05:38:10Z</time></trkpt>
      <trkpt lat="32.264100" lon="77.199627"><ele>2440.7</ele><time>2026-05-14T05:38:12Z</time></trkpt>
      <trkpt lat="32.264212" lon="77.199598"><ele>2441.6</ele><time>2026-05-14T05:38:14Z</time></trkpt>
      <trkpt lat="32.264323" lon="77.199562"><ele>2442.6</ele><time>2026-05-14T05:38:16Z</time></trkpt>
      <trkpt lat="32.264433" lon="77.199520"><ele>2443.6</ele><time>2026-05-14T05:38:18Z</time></trkpt>
      <trkpt lat="32.264541" lon="77.199472"><ele>2444.6</ele><time>2026-05-14T05:38:20Z</time></trkpt>
      <trkpt lat="32.264648" lon="77.199417"><ele>2445.7</ele><time>2026-05-14T05:38:22Z</time></trkpt>
      <trkpt lat="32.264751" lon="77.199355"><ele>2446.8</ele><time>2026-05-14T05:38:24Z</time></trkpt>
      <trkpt lat="32.264852" lon="77.199288"><ele>2448.0</ele><time>2026-05-14T05:38:26Z</time></trkpt>
      <trkpt lat="32.264951" lon="77.199214"><ele>2449.3</ele><time>2026-05-14T05:38:28Z</time></trkpt>
      <trkpt lat="32.265046" lon="77.199135"><ele>2450.6</ele><time>2026-05-14T05:38:30Z</time></trkpt>
      <trkpt lat="32.265138" lon="77.199051"><ele>2451.9</ele><time>2026-05-14T05:38:32Z</time></trkpt>
      <trkpt lat="32.265228" lon="77.198963"><ele>2453.4</ele><time>2026-05-14T05:38:34Z</time></trkpt>
      <trkpt lat="32.265315" lon="77.198871"><ele>2454.8</ele><time>2026-05-14T05:38:36Z</time></trkpt>
      <trkpt lat="32.265400" lon="77.198777"><ele>2456.4</ele><time>2026-05-14T05:38:38Z</time></trkpt>
      <trkpt lat="32.265485" lon="77.198680"><ele>2458.0</ele><time>2026-05-14T05:38:40Z</time></trkpt>
      <trkpt lat="32.265569" lon="77.198581"><ele>2459.7</ele><time>2026-05-14T05:38:42Z</time></trkpt>
      <trkpt lat="32.265653" lon="77.198481"><ele>2461.5</ele><time>2026-05-14T05:38:44Z</time></trkpt>
      <trkpt lat="32.265738" lon="77.198381"><ele>2463.3</ele><time>2026-05-14T05:38:46Z</time></trkpt>
      <trkpt lat="32.265826" lon="77.198282"><ele>2465.2</ele><time>2026-05-14T05:38:48Z</time></trkpt>
      <trkpt lat="32.265917" lon="77.198184"><ele>2467.1</ele><time>2026-05-14T05:38:50Z</time></trkpt>
      <trkpt lat="32.266012" lon="77.198089"><ele>2469.1</ele><time>2026-05-14T05:38:52Z</time></trkpt>
      <trkpt lat="32.266111" lon="77.197997"><ele>2471.1</ele><time>2026-05-14T05:38:54Z</time></trkpt>
      <trkpt lat="32.266215" lon="77.197910"><ele>2473.2</ele><time>2026-05-14T05:38:56Z</time></trkpt>
      <trkpt lat="32.266325" lon="77.197828"><ele>2475.4</ele><time>2026-05-14T05:38:58Z</time></trkpt>
      <trkpt lat="32.266441" lon="77.197753"><ele>2477.6</ele><time>2026-05-14T05:39:00Z</time></trkpt>
      <trkpt lat="32.266563" lon="77.197686"><ele>2479.8</ele><time>2026-05-14T05:39:02Z</time></trkpt>
      <trkpt lat="32.266690" lon="77.197628"><ele>2482.0</ele><time>2026-05-14T05:39:04Z</time></trkpt>
      <trkpt lat="32.266822" lon="77.197580"><ele>2484.3</ele><time>2026-05-14T05:39:06Z</time></trkpt>
      <trkpt lat="32.266959" lon="77.197544"><ele>2486.6</ele><time>2026-05-14T05:39:08Z</time></trkpt>
      <trkpt lat="32.267099" lon="77.197519"><ele>2488.9</ele><time>2026-05-14T05:39:10Z</time></trkpt>
      <trkpt lat="32.267242" lon="77.197506"><ele>2491.3</ele><time>2026-05-14T05:39:12Z</time></trkpt>
      <trkpt lat="32.267386" lon="77.197505"><ele>2493.6</ele><time>2026-05-14T05:39:14Z</time></trkpt>
      <trkpt lat="32.267530" lon="77.197518"><ele>2495.9</ele><time>2026-05-14T05:39:16Z</time></trkpt>
      <trkpt lat="32.267673" lon="77.197542"><ele>2498.2</ele><time>2026-05-14T05:39:18Z</time></trkpt>
      <trkpt lat="32.267815" lon="77.197578"><ele>2500.5</ele><time>2026-05-14T05:39:20Z</time></trkpt>
      <trkpt lat="32.267954" lon="77.197626"><ele>2502.8</ele><time>2026-05-14T05:39:22Z</time></trkpt>
      <trkpt lat="32.268090" lon="77.197683"><ele>2505.1</ele><time>2026-05-14T05:39:24Z</time></trkpt>
      <trkpt lat="32.268223" lon="77.197750"><ele>2507.3</ele><time>2026-05-14T05:39:26Z</time></trkpt>
      <trkpt lat="32.268352" lon="77.197825"><ele>2509.5</ele><time>2026-05-14T05:39:28Z</time></trkpt>
      <trkpt lat="32.268477" lon="77.197908"><ele>2511.6</ele><time>2026-05-14T05:39:30Z</time></trkpt>
      <trkpt lat="32.268598" lon="77.197996"><ele>2513.7</ele><time>2026-05-14T05:39:32Z</time></trkpt>
      <trkpt lat="32.268717" lon="77.198090"><ele>2515.7</ele><time>2026-05-14T05:39:34Z</time></trkpt>
      <trkpt lat="32.268833" lon="77.198188"><ele>2517.7</ele><time>2026-05-14T05:39:36Z</time></trkpt>
      <trkpt lat="32.268946" lon="77.198290"><ele>2519.7</ele><time>2026-05-14T05:39:38Z</time></trkpt>
      <trkpt lat="32.269058" lon="77.198394"><ele>2521.5</ele><time>2026-05-14T05:39:40Z</time></trkpt>
      <trkpt lat="32.269170" lon="77.198499"><ele>2523.4</ele><time>2026-05-14T05:39:42Z</time></trkpt>
      <trkpt lat="32.269281" lon="77.198606"><ele>2525.1</ele><time>2026-05-14T05:39:44Z</time></trkpt>
      <trkpt lat="32.269393" lon="77.198713"><ele>2526.8</ele><time>2026-05-14T05:39:46Z</time></trkpt>
      <trkpt lat="32.269505" lon="77.198819"><ele>2528.4</ele><time>2026-05-14T05:39:48Z</time></trkpt>
      <trkpt lat="32.269619" lon="77.198925"><ele>2529.9</ele><time>2026-05-14T05:39:50Z</time></trkpt>
      <trkpt lat="32.269735" lon="77.199030"><ele>2531.4</ele><time>2026-05-14T05:39:52Z</time></trkpt>
      <trkpt lat="32.269853" lon="77.199132"><ele>2532.9</ele><time>2026-05-14T05:39:54Z</time></trkpt>
      <trkpt lat="32.269973" lon="77.199233"><ele>2534.2</ele><time>2026-05-14T05:39:56Z</time></trkpt>
      <trkpt lat="32.270095" lon="77.199332"><ele>2535.5</ele><time>2026-05-14T05:39:58Z</time></trkpt>
      <trkpt lat="32.270219" lon="77.199429"><ele>2536.7</ele><time>2026-05-14T05:40:00Z</time></trkpt>
      <trkpt lat="32.270345" lon="77.199524"><ele>2537.9</ele><time>2026-05-14T05:40:02Z</time></trkpt>
      <trkpt lat="32.270473" lon="77.199617"><ele>2539.0</ele><time>2026-05-14T05:40:04Z</time></trkpt>
      <trkpt lat="32.270602" lon="77.199709"><ele>2540.1</ele><time>2026-05-14T05:40:06Z</time></trkpt>
      <trkpt lat="32.270733" lon="77.199799"><ele>2541.2</ele><time>2026-05-14T05:40:08Z</time></trkpt>
      <trkpt lat="32.270864" lon="77.199890"><ele>2542.2</ele><time>2026-05-14T05:40:10Z</time></trkpt>
      <trkpt lat="32.270995" lon="77.199980"><ele>2543.1</ele><time>2026-05-14T05:40:12Z</time></trkpt>
      <trkpt lat="32.271125" lon="77.200071"><ele>2544.1</ele><time>2026-05-14T05:40:14Z</time></trkpt>
      <trkpt lat="32.271255" lon="77.200164"><ele>2545.0</ele><time>2026-05-14T05:40:16Z</time></trkpt>
      <trkpt lat="32.271383" lon="77.200259"><ele>2545.9</ele><time>2026-05-14T05:40:18Z</time></trkpt>
      <trkpt lat="32.271509" lon="77.200357"><ele>2546.7</ele><time>2026-05-14T05:40:20Z</time></trkpt>
      <trkpt lat="32.271632" lon="77.200459"><ele>2547.6</ele><time>2026-05-14T05:40:22Z</time></trkpt>
      <trkpt lat="32.271752" lon="77.200566"><ele>2548.5</ele><time>2026-05-14T05:40:24Z</time></trkpt>
      <trkpt lat="32.271867" lon="77.200677"><ele>2549.4</ele><time>2026-05-14T05:40:26Z</time></trkpt>
      <trkpt lat="32.271976" lon="77.200794"><ele>2550.3</ele><time>2026-05-14T05:40:28Z</time></trkpt>
      <trkpt lat="32.272080" lon="77.200916"><ele>2551.2</ele><time>2026-05-14T05:40:30Z</time></trkpt>
      <trkpt lat="32.272176" lon="77.201043"><ele>2552.1</ele><time>2026-05-14T05:40:32Z</time></trkpt>
      <trkpt lat="32.272265" lon="77.201176"><ele>2553.1</ele><time>2026-05-14T05:40:34Z</time></trkpt>
      <trkpt lat="32.272345" lon="77.201314"><ele>2554.1</ele><time>2026-05-14T05:40:36Z</time></trkpt>
      <trkpt lat="32.272417" lon="77.201457"><ele>2555.1</ele><time>2026-05-14T05:40:38Z</time></trkpt>
      <trkpt lat="32.272479" lon="77.201604"><ele>2556.2</ele><time>2026-05-14T05:40:40Z</time></trkpt>
      <trkpt lat="32.272532" lon="77.201754"><ele>2557.3</ele><time>2026-05-14T05:40:42Z</time></trkpt>
      <trkpt lat="32.272576" lon="77.201908"><ele>2558.5</ele><time>2026-05-14T05:40:44Z</time></trkpt>
      <trkpt lat="32.272611" lon="77.202063"><ele>2559.7</ele><time>2026-05-14T05:40:46Z</time></trkpt>
      <trkpt lat="32.272637" lon="77.202219"><ele>2561.0</ele><time>2026-05-14T05:40:48Z</time></trkpt>
      <trkpt lat="32.272655" lon="77.202377"><ele>2562.4</ele><time>2026-05-14T05:40:50Z</time></trkpt>
      <trkpt lat="32.272667" lon="77.202535"><ele>2563.8</ele><time>2026-05-14T05:40:52Z</time></trkpt>
      <trkpt lat="32.272672" lon="77.202693"><ele>2565.3</ele><time>2026-05-14T05:40:54Z</time></trkpt>
      <trkpt lat="32.272672" lon="77.202850"><ele>2566.8</ele><time>2026-05-14T05:40:56Z</time></trkpt>
      <trkpt lat="32.272669" lon="77.203007"><ele>2568.4</ele><time>2026-05-14T05:40:58Z</time></trkpt>
      <trkpt lat="32.272664" lon="77.203164"><ele>2570.1</ele><time>2026-05-14T05:41:00Z</time></trkpt>
      <trkpt lat="32.272657" lon="77.203321"><ele>2571.8</ele><time>2026-05-14T05:41:02Z</time></trkpt>
      <trkpt lat="32.272651" lon="77.203477"><ele>2573.6</ele><time>2026-05-14T05:41:04Z</time></trkpt>
      <trkpt lat="32.272647" lon="77.203632"><ele>2575.5</ele><time>2026-05-14T05:41:06Z</time></trkpt>
      <trkpt lat="32.272646" lon="77.203787"><ele>2577.5</ele><time>2026-05-14T05:41:08Z</time></trkpt>
      <trkpt lat="32.272650" lon="77.203942"><ele>2579.4</ele><time>2026-05-14T05:41:10Z</time></trkpt>
      <trkpt lat="32.272660" lon="77.204096"><ele>2581.5</ele><time>2026-05-14T05:41:12Z</time></trkpt>
      <trkpt lat="32.272676" lon="77.204249"><ele>2583.6</ele><time>2026-05-14T05:41:14Z</time></trkpt>
      <trkpt lat="32.272701" lon="77.204400"><ele>2585.7</ele><time>2026-05-14T05:41:16Z</time></trkpt>
      <trkpt lat="32.272736" lon="77.204548"><ele>2587.9</ele><time>2026-05-14T05:41:18Z</time></trkpt>
      <trkpt lat="32.272780" lon="77.204694"><ele>2590.1</ele><time>2026-05-14T05:41:20Z</time></trkpt>
      <trkpt lat="32.272834" lon="77.204835"><ele>2592.4</ele><time>2026-05-14T05:41:22Z</time></trkpt>
      <trkpt lat="32.272898" lon="77.204971"><ele>2594.6</ele><time>2026-05-14T05:41:24Z</time></trkpt>
      <trkpt lat="32.272973" lon="77.205101"><ele>2596.9</ele><time>2026-05-14T05:41:26Z</time></trkpt>
      <trkpt lat="32.273058" lon="77.205224"><ele>2599.3</ele><time>2026-05-14T05:41:28Z</time></trkpt>
      <trkpt lat="32.273153" lon="77.205339"><ele>2601.6</ele><time>2026-05-14T05:41:30Z</time></trkpt>
      <trkpt lat="32.273256" lon="77.205444"><ele>2603.9</ele><time>2026-05-14T05:41:32Z</time></trkpt>
      <trkpt lat="32.273368" lon="77.205541"><ele>2606.2</ele><time>2026-05-14T05:41:34Z</time></trkpt>
      <trkpt lat="32.273486" lon="77.205628"><ele>2608.5</ele><time>2026-05-14T05:41:36Z</time></trkpt>
      <trkpt lat="32.273610" lon="77.205704"><ele>2610.9</ele><time>2026-05-14T05:41:38Z</time></trkpt>
      <trkpt lat="32.273738" lon="77.205772"><ele>2613.1</ele><time>2026-05-14T05:41:40Z</time></trkpt>
      <trkpt lat="32.273870" lon="77.205829"><ele>2615.4</ele><time>2026-05-14T05:41:42Z</time></trkpt>
      <trkpt lat="32.274005" lon="77.205878"><ele>2617.6</ele><time>2026-05-14T05:41:44Z</time></trkpt>
      <trkpt lat="32.274142" lon="77.205919"><ele>2619.8</ele><time>2026-05-14T05:41:46Z</time></trkpt>
      <trkpt lat="32.274280" lon="77.205952"><ele>2621.9</ele><time>2026-05-14T05:41:48Z</time></trkpt>
      <trkpt lat="32.274418" lon="77.205979"><ele>2624.0</ele><time>2026-05-14T05:41:50Z</time></trkpt>
      <trkpt lat="32.274556" lon="77.206001"><ele>2626.1</ele><time>2026-05-14T05:41:52Z</time></trkpt>
      <trkpt lat="32.274694" lon="77.206019"><ele>2628.1</ele><time>2026-05-14T05:41:54Z</time></trkpt>
      <trkpt lat="32.274832" lon="77.206033"><ele>2630.0</ele><time>2026-05-14T05:41:56Z</time></trkpt>
      <trkpt lat="32.274969" lon="77.206044"><ele>2631.9</ele><time>2026-05-14T05:41:58Z</time></trkpt>
      <trkpt lat="32.275105" lon="77.206055"><ele>2633.7</ele><time>2026-05-14T05:42:00Z</time></trkpt>
      <trkpt lat="32.275240" lon="77.206064"><ele>2635.5</ele><time>2026-05-14T05:42:02Z</time></trkpt>
      <trkpt lat="32.275374" lon="77.206074"><ele>2637.2</ele><time>2026-05-14T05:42:04Z</time></trkpt>
      <trkpt lat="32.275508" lon="77.206084"><ele>2638.8</ele><time>2026-05-14T05:42:06Z</time></trkpt>
      <trkpt lat="32.275640" lon="77.206096"><ele>2640.4</ele><time>2026-05-14T05:42:08Z</time></trkpt>
      <trkpt lat="32.275771" lon="77.206109"><ele>2641.8</ele><time>2026-05-14T05:42:10Z</time></trkpt>
      <trkpt lat="32.275901" lon="77.206124"><ele>2643.3</ele><time>2026-05-14T05:42:12Z</time></trkpt>
      <trkpt lat="32.276030" lon="77.206141"><ele>2644.6</ele><time>2026-05-14T05:42:14Z</time></trkpt>
      <trkpt lat="32.276157" lon="77.206160"><ele>2645.9</ele><time>2026-05-14T05:42:16Z</time></trkpt>
      <trkpt lat="32.276284" lon="77.206181"><ele>2647.2</ele><time>2026-05-14T05:42:18Z</time></trkpt>
      <trkpt lat="32.276408" lon="77.206204"><ele>2648.4</ele><time>2026-05-14T05:42:20Z</time></trkpt>
      <trkpt lat="32.276532" lon="77.206228"><ele>2649.5</ele><time>2026-05-14T05:42:22Z</time></trkpt>
      <trkpt lat="32.276655" lon="77.206253"><ele>2650.6</ele><time>2026-05-14T05:42:24Z</time></trkpt>
      <trkpt lat="32.276776" lon="77.206278"><ele>2651.6</ele><time>2026-05-14T05:42:26Z</time></trkpt>
      <trkpt lat="32.276896" lon="77.206304"><ele>2652.6</ele><time>2026-05-14T05:42:28Z</time></trkpt>
      <trkpt lat="32.277016" lon="77.206328"><ele>2653.6</ele><time>2026-05-14T05:42:30Z</time></trkpt>
      <trkpt lat="32.277135" lon="77.206351"><ele>2654.5</ele><time>2026-05-14T05:42:32Z</time></trkpt>
      <trkpt lat="32.277253" lon="77.206372"><ele>2655.4</ele><time>2026-05-14T05:42:34Z</time></trkpt>
      <trkpt lat="32.277370" lon="77.206390"><ele>2656.3</ele><time>2026-05-14T05:42:36Z</time></trkpt>
      <trkpt lat="32.277487" lon="77.206404"><ele>2657.2</ele><time>2026-05-14T05:42:38Z</time></trkpt>
      <trkpt lat="32.277604" lon="77.206414"><ele>2658.1</ele><time>2026-05-14T05:42:40Z</time></trkpt>
      <trkpt lat="32.277720" lon="77.206419"><ele>2659.0</ele><time>2026-05-14T05:42:42Z</time></trkpt>
      <trkpt lat="32.277835" lon="77.206419"><ele>2659.8</ele><time>2026-05-14T05:42:44Z</time></trkpt>
      <trkpt lat="32.277949" lon="77.206413"><ele>2660.7</ele><time>2026-05-14T05:42:46Z</time></trkpt>
      <trkpt lat="32.278061" lon="77.206400"><ele>2661.6</ele><time>2026-05-14T05:42:48Z</time></trkpt>
      <trkpt lat="32.278171" lon="77.206380"><ele>2662.6</ele><time>2026-05-14T05:42:50Z</time></trkpt>
      <trkpt lat="32.278279" lon="77.206354"><ele>2663.5</ele><time>2026-05-14T05:42:52Z</time></trkpt>
      <trkpt lat="32.278384" lon="77.206321"><ele>2664.5</ele><time>2026-05-14T05:42:54Z</time></trkpt>
      <trkpt lat="32.278486" lon="77.206281"><ele>2665.6</ele><time>2026-05-14T05:42:56Z</time></trkpt>
      <trkpt lat="32.278584" lon="77.206235"><ele>2666.6</ele><time>2026-05-14T05:42:58Z</time></trkpt>
      <trkpt lat="32.278677" lon="77.206182"><ele>2667.7</ele><time>2026-05-14T05:43:00Z</time></trkpt>
      <trkpt lat="32.278766" lon="77.206124"><ele>2668.9</ele><time>2026-05-14T05:43:02Z</time></trkpt>
      <trkpt lat="32.278851" lon="77.206061"><ele>2670.1</ele><time>2026-05-14T05:43:04Z</time></trkpt>
      <trkpt lat="32.278931" lon="77.205994"><ele>2671.4</ele><time>2026-05-14T05:43:06Z</time></trkpt>
      <trkpt lat="32.279006" lon="77.205923"><ele>2672.8</ele><time>2026-05-14T05:43:08Z</time></trkpt>
      <trkpt lat="32.279077" lon="77.205849"><ele>2674.2</ele><time>2026-05-14T05:43:10Z</time></trkpt>
      <trkpt lat="32.279145" lon="77.205773"><ele>2675.7</ele><time>2026-05-14T05:43:12Z</time></trkpt>
      <trkpt lat="32.279209" lon="77.205696"><ele>2677.2</ele><time>2026-05-14T05:43:14Z</time></trkpt>
      <trkpt lat="32.279270" lon="77.205617"><ele>2678.8</ele><time>2026-05-14T05:43:16Z</time></trkpt>
      <trkpt lat="32.279330" lon="77.205537"><ele>2680.5</ele><time>2026-05-14T05:43:18Z</time></trkpt>
      <trkpt lat="32.279388" lon="77.205458"><ele>2682.2</ele><time>2026-05-14T05:43:20Z</time></trkpt>
      <trkpt lat="32.279445" lon="77.205380"><ele>2684.0</ele><time>2026-05-14T05:43:22Z</time></trkpt>
      <trkpt lat="32.279503" lon="77.205302"><ele>2685.9</ele><time>2026-05-14T05:43:24Z</time></trkpt>
      <trkpt lat="32.279562" lon="77.205226"><ele>2687.8</ele><time>2026-05-14T05:43:26Z</time></trkpt>
      <trkpt lat="32.279622" lon="77.205153"><ele>2689.8</ele><time>2026-05-14T05:43:28Z</time></trkpt>
      <trkpt lat="32.279684" lon="77.205082"><ele>2691.8</ele><time>2026-05-14T05:43:30Z</time></trkpt>
      <trkpt lat="32.279748" lon="77.205014"><ele>2693.9</ele><time>2026-05-14T05:43:32Z</time></trkpt>
      <trkpt lat="32.279815" lon="77.204950"><ele>2696.1</ele><time>2026-05-14T05:43:34Z</time></trkpt>
      <trkpt lat="32.279886" lon="77.204891"><ele>2698.2</ele><time>2026-05-14T05:43:36Z</time></trkpt>
      <trkpt lat="32.279959" lon="77.204837"><ele>2700.4</ele><time>2026-05-14T05:43:38Z</time></trkpt>
      <trkpt lat="32.280035" lon="77.204788"><ele>2702.7</ele><time>2026-05-14T05:43:40Z</time></trkpt>
      <trkpt lat="32.280115" lon="77.204745"><ele>2705.0</ele><time>2026-05-14T05:43:42Z</time></trkpt>
      <trkpt lat="32.280196" lon="77.204709"><ele>2707.3</ele><time>2026-05-14T05:43:44Z</time></trkpt>
      <trkpt lat="32.280280" lon="77.204679"><ele>2709.6</ele><time>2026-05-14T05:43:46Z</time></trkpt>
      <trkpt lat="32.280365" lon="77.204657"><ele>2711.9</ele><time>2026-05-14T05:43:48Z</time></trkpt>
      <trkpt lat="32.280451" lon="77.204641"><ele>2714.2</ele><time>2026-05-14T05:43:50Z</time></trkpt>
      <trkpt lat="32.280537" lon="77.204632"><ele>2716.6</ele><time>2026-05-14T05:43:52Z</time></trkpt>
      <trkpt lat="32.280624" lon="77.204630"><ele>2718.9</ele><time>2026-05-14T05:43:54Z</time></trkpt>
      <trkpt lat="32.280709" lon="77.204634"><ele>2721.2</ele><time>2026-05-14T05:43:56Z</time></trkpt>
      <trkpt lat="32.280794" lon="77.204644"><ele>2723.5</ele><time>2026-05-14T05:43:58Z</time></trkpt>
      <trkpt lat="32.280877" lon="77.204659"><ele>2725.7</ele><time>2026-05-14T05:44:00Z</time></trkpt>
      <trkpt lat="32.280959" lon="77.204680"><ele>2727.9</ele><time>2026-05-14T05:44:02Z</time></trkpt>
      <trkpt lat="32.281039" lon="77.204704"><ele>2730.1</ele><time>2026-05-14T05:44:04Z</time></trkpt>
      <trkpt lat="32.281118" lon="77.204733"><ele>2732.3</ele><time>2026-05-14T05:44:06Z</time></trkpt>
      <trkpt lat="32.281195" lon="77.204764"><ele>2734.4</ele><time>2026-05-14T05:44:08Z</time></trkpt>
      <trkpt lat="32.281270" lon="77.204798"><ele>2736.4</ele><time>2026-05-14T05:44:10Z</time></trkpt>
      <trkpt lat="32.281345" lon="77.204834"><ele>2738.5</ele><time>2026-05-14T05:44:12Z</time></trkpt>
      <trkpt lat="32.281418" lon="77.204871"><ele>2740.4</ele><time>2026-05-14T05:44:14Z</time></trkpt>
      <trkpt lat="32.281490" lon="77.204909"><ele>2742.3</ele><time>2026-05-14T05:44:16Z</time></trkpt>
      <trkpt lat="32.281562" lon="77.204947"><ele>2744.1</ele><time>2026-05-14T05:44:18Z</time></trkpt>
      <trkpt lat="32.281633" lon="77.204986"><ele>2745.9</ele><time>2026-05-14T05:44:20Z</time></trkpt>
      <trkpt lat="32.281705" lon="77.205024"><ele>2747.6</ele><time>2026-05-14T05:44:22Z</time></trkpt>
      <trkpt lat="32.281776" lon="77.205062"><ele>2749.2</ele><time>2026-05-14T05:44:24Z</time></trkpt>
      <trkpt lat="32.281848" lon="77.205099"><ele>2750.8</ele><time>2026-05-14T05:44:26Z</time></trkpt>
      <trkpt lat="32.281920" lon="77.205135"><ele>2752.3</ele><time>2026-05-14T05:44:28Z</time></trkpt>
      <trkpt lat="32.281992" lon="77.205169"><ele>2753.7</ele><time>2026-05-14T05:44:30Z</time></trkpt>
      <trkpt lat="32.282065" lon="77.205203"><ele>2755.1</ele><time>2026-05-14T05:44:32Z</time></trkpt>
      <trkpt lat="32.282138" lon="77.205235"><ele>2756.4</ele><time>2026-05-14T05:44:34Z</time></trkpt>
      <trkpt lat="32.282212" lon="77.205267"><ele>2757.6</ele><time>2026-05-14T05:44:36Z</time></trkpt>
      <trkpt lat="32.282286" lon="77.205297"><ele>2758.8</ele><time>2026-05-14T05:44:38Z</time></trkpt>
      <trkpt lat="32.282360" lon="77.205327"><ele>2760.0</ele><time>2026-05-14T05:44:40Z</time></trkpt>
      <trkpt lat="32.282435" lon="77.205356"><ele>2761.1</ele><time>2026-05-14T05:44:42Z</time></trkpt>
      <trkpt lat="32.282509" lon="77.205385"><ele>2762.1</ele><time>2026-05-14T05:44:44Z</time></trkpt>
      <trkpt lat="32.282584" lon="77.205414"><ele>2763.1</ele><time>2026-05-14T05:44:46Z</time></trkpt>
      <trkpt lat="32.282658" lon="77.205444"><ele>2764.1</ele><time>2026-05-14T05:44:48Z</time></trkpt>
      <trkpt lat="32.282732" lon="77.205475"><ele>2765.0</ele><time>2026-05-14T05:44:50Z</time></trkpt>
      <trkpt lat="32.282806" lon="77.205508"><ele>2765.9</ele><time>2026-05-14T05:44:52Z</time></trkpt>
      <trkpt lat="32.282879" lon="77.205543"><ele>2766.8</ele><time>2026-05-14T05:44:54Z</time></trkpt>
      <trkpt lat="32.282950" lon="77.205580"><ele>2767.7</ele><time>2026-05-14T05:44:56Z</time></trkpt>
      <trkpt lat="32.283020" lon="77.205621"><ele>2768.6</ele><time>2026-05-14T05:44:58Z</time></trkpt>
      <trkpt lat="32.283089" lon="77.205665"><ele>2769.5</ele><time>2026-05-14T05:45:00Z</time></trkpt>
      <trkpt lat="32.283155" lon="77.205712"><ele>2770.3</ele><time>2026-05-14T05:45:02Z</time></trkpt>
      <trkpt lat="32.283219" lon="77.205764"><ele>2771.2</ele><time>2026-05-14T05:45:04Z</time></trkpt>
      <trkpt lat="32.283279" lon="77.205819"><ele>2772.1</ele><time>2026-05-14T05:45:06Z</time></trkpt>
      <trkpt lat="32.283336" lon="77.205879"><ele>2773.1</ele><time>2026-05-14T05:45:08Z</time></trkpt>
      <trkpt lat="32.283389" lon="77.205943"><ele>2774.0</ele><time>2026-05-14T05:45:10Z</time></trkpt>
      <trkpt lat="32.283437" lon="77.206011"><ele>2775.0</ele><time>2026-05-14T05:45:12Z</time></trkpt>
      <trkpt lat="32.283480" lon="77.206082"><ele>2776.0</ele><time>2026-05-14T05:45:14Z</time></trkpt>
      <trkpt lat="32.283519" lon="77.206157"><ele>2777.1</ele><time>2026-05-14T05:45:16Z</time></trkpt>
      <trkpt lat="32.283551" lon="77.206235"><ele>2778.2</ele><time>2026-05-14T05:45:18Z</time></trkpt>
      <trkpt lat="32.283579" lon="77.206316"><ele>2779.4</ele><time>2026-05-14T05:45:20Z</time></trkpt>
      <trkpt lat="32.283600" lon="77.206398"><ele>2780.6</ele><time>2026-05-14T05:45:22Z</time></trkpt>
      <trkpt lat="32.283617" lon="77.206483"><ele>2781.9</ele><time>2026-05-14T05:45:24Z</time></trkpt>
      <trkpt lat="32.283629" lon="77.206568"><ele>2783.2</ele><time>2026-05-14T05:45:26Z</time></trkpt>
      <trkpt lat="32.283636" lon="77.206655"><ele>2784.6</ele><time>2026-05-14T05:45:28Z</time></trkpt>
      <trkpt lat="32.283639" lon="77.206743"><ele>2786.1</ele><time>2026-05-14T05:45:30Z</time></trkpt>
      <trkpt lat="32.283638" lon="77.206831"><ele>2787.6</ele><time>2026-05-14T05:45:32Z</time></trkpt>
      <trkpt lat="32.283635" lon="77.206920"><ele>2789.2</ele><time>2026-05-14T05:45:34Z</time></trkpt>
      <trkpt lat="32.283630" lon="77.207009"><ele>2790.9</ele><time>2026-05-14T05:45:36Z</time></trkpt>
      <trkpt lat="32.283623" lon="77.207099"><ele>2792.6</ele><time>2026-05-14T05:45:38Z</time></trkpt>
      <trkpt lat="32.283616" lon="77.207190"><ele>2794.4</ele><time>2026-05-14T05:45:40Z</time></trkpt>
      <trkpt lat="32.283609" lon="77.207281"><ele>2796.3</ele><time>2026-05-14T05:45:42Z</time></trkpt>
      <trkpt lat="32.283603" lon="77.207373"><ele>2798.2</ele><time>2026-05-14T05:45:44Z</time></trkpt>
      <trkpt lat="32.283600" lon="77.207466"><ele>2800.1</ele><time>2026-05-14T05:45:46Z</time></trkpt>
      <trkpt lat="32.283599" lon="77.207560"><ele>2802.2</ele><time>2026-05-14T05:45:48Z</time></trkpt>
      <trkpt lat="32.283602" lon="77.207654"><ele>2804.3</ele><time>2026-05-14T05:45:50Z</time></trkpt>
      <trkpt lat="32.283609" lon="77.207749"><ele>2806.4</ele><time>2026-05-14T05:45:52Z</time></trkpt>
      <trkpt lat="32.283622" lon="77.207844"><ele>2808.6</ele><time>2026-05-14T05:45:54Z</time></trkpt>
      <trkpt lat="32.283640" lon="77.207940"><ele>2810.8</ele><time>2026-05-14T05:45:56Z</time></trkpt>
      <trkpt lat="32.283664" lon="77.208034"><ele>2813.0</ele><time>2026-05-14T05:45:58Z</time></trkpt>
      <trkpt lat="32.283696" lon="77.208128"><ele>2815.3</ele><time>2026-05-14T05:46:00Z</time></trkpt>
      <trkpt lat="32.283734" lon="77.208219"><ele>2817.6</ele><time>2026-05-14T05:46:02Z</time></trkpt>
      <trkpt lat="32.283779" lon="77.208309"><ele>2819.9</ele><time>2026-05-14T05:46:04Z</time></trkpt>
      <trkpt lat="32.283831" lon="77.208395"><ele>2822.2</ele><time>2026-05-14T05:46:06Z</time></trkpt>
      <trkpt lat="32.283891" lon="77.208478"><ele>2824.5</ele><time>2026-05-14T05:46:08Z</time></trkpt>
      <trkpt lat="32.283956" lon="77.208558"><ele>2826.9</ele><time>2026-05-14T05:46:10Z</time></trkpt>
      <trkpt lat="32.284028" lon="77.208632"><ele>2829.2</ele><time>2026-05-14T05:46:12Z</time></trkpt>
      <trkpt lat="32.284106" lon="77.208703"><ele>2831.5</ele><time>2026-05-14T05:46:14Z</time></trkpt>
      <trkpt lat="32.284188" lon="77.208769"><ele>2833.8</ele><time>2026-05-14T05:46:16Z</time></trkpt>
      <trkpt lat="32.284276" lon="77.208830"><ele>2836.0</ele><time>2026-05-14T05:46:18Z</time></trkpt>
      <trkpt lat="32.284367" lon="77.208886"><ele>2838.3</ele><time>2026-05-14T05:46:20Z</time></trkpt>
      <trkpt lat="32.284462" lon="77.208939"><ele>2840.5</ele><time>2026-05-14T05:46:22Z</time></trkpt>
      <trkpt lat="32.284560" lon="77.208988"><ele>2842.6</ele><time>2026-05-14T05:46:24Z</time></trkpt>
      <trkpt lat="32.284661" lon="77.209033"><ele>2844.7</ele><time>2026-05-14T05:46:26Z</time></trkpt>
      <trkpt lat="32.284764" lon="77.209076"><ele>2846.8</ele><time>2026-05-14T05:46:28Z</time></trkpt>
      <trkpt lat="32.284868" lon="77.209117"><ele>2848.8</ele><time>2026-05-14T05:46:30Z</time></trkpt>
      <trkpt lat="32.284975" lon="77.209156"><ele>2850.8</ele><time>2026-05-14T05:46:32Z</time></trkpt>
      <trkpt lat="32.285082" lon="77.209195"><ele>2852.7</ele><time>2026-05-14T05:46:34Z</time></trkpt>
      <trkpt lat="32.285191" lon="77.209233"><ele>2854.5</ele><time>2026-05-14T05:46:36Z</time></trkpt>
      <trkpt lat="32.285301" lon="77.209271"><ele>2856.3</ele><time>2026-05-14T05:46:38Z</time></trkpt>
      <trkpt lat="32.285412" lon="77.209311"><ele>2858.0</ele><time>2026-05-14T05:46:40Z</time></trkpt>
      <trkpt lat="32.285523" lon="77.209351"><ele>2859.6</ele><time>2026-05-14T05:46:42Z</time></trkpt>
      <trkpt lat="32.285634" lon="77.209393"><ele>2861.2</ele><time>2026-05-14T05:46:44Z</time></trkpt>
      <trkpt lat="32.285746" lon="77.209438"><ele>2862.7</ele><time>2026-05-14T05:46:46Z</time></trkpt>
      <trkpt lat="32.285859" lon="77.209484"><ele>2864.1</ele><time>2026-05-14T05:46:48Z</time></trkpt>
      <trkpt lat="32.285971" lon="77.209532"><ele>2865.5</ele><time>2026-05-14T05:46:50Z</time></trkpt>
      <trkpt lat="32.286084" lon="77.209583"><ele>2866.8</ele><time>2026-05-14T05:46:52Z</time></trkpt>
      <trkpt lat="32.286196" lon="77.209635"><ele>2868.1</ele><time>2026-05-14T05:46:54Z</time></trkpt>
      <trkpt lat="32.286309" lon="77.209689"><ele>2869.3</ele><time>2026-05-14T05:46:56Z</time></trkpt>
      <trkpt lat="32.286423" lon="77.209745"><ele>2870.4</ele><time>2026-05-14T05:46:58Z</time></trkpt>
      <trkpt lat="32.286537" lon="77.209801"><ele>2871.5</ele><time>2026-05-14T05:47:00Z</time></trkpt>
      <trkpt lat="32.286652" lon="77.209858"><ele>2872.6</ele><time>2026-05-14T05:47:02Z</time></trkpt>
      <trkpt lat="32.286768" lon="77.209914"><ele>2873.6</ele><time>2026-05-14T05:47:04Z</time></trkpt>
      <trkpt lat="32.286886" lon="77.209969"><ele>2874.5</ele><time>2026-05-14T05:47:06Z</time></trkpt>
      <trkpt lat="32.287006" lon="77.210023"><ele>2875.5</ele><time>2026-05-14T05:47:08Z</time></trkpt>
      <trkpt lat="32.287128" lon="77.210074"><ele>2876.4</ele><time>2026-05-14T05:47:10Z</time></trkpt>
      <trkpt lat="32.287252" lon="77.210121"><ele>2877.3</ele><time>2026-05-14T05:47:12Z</time></trkpt>
      <trkpt lat="32.287379" lon="77.210164"><ele>2878.2</ele><time>2026-05-14T05:47:14Z</time></trkpt>
      <trkpt lat="32.287509" lon="77.210201"><ele>2879.1</ele><time>2026-05-14T05:47:16Z</time></trkpt>
      <trkpt lat="32.287641" lon="77.210232"><ele>2879.9</ele><time>2026-05-14T05:47:18Z</time></trkpt>
      <trkpt lat="32.287776" lon="77.210255"><ele>2880.8</ele><time>2026-05-14T05:47:20Z</time></trkpt>
      <trkpt lat="32.287913" lon="77.210270"><ele>2881.7</ele><time>2026-05-14T05:47:22Z</time></trkpt>
      <trkpt lat="32.288052" lon="77.210275"><ele>2882.6</ele><time>2026-05-14T05:47:24Z</time></trkpt>
      <trkpt lat="32.288191" lon="77.210271"><ele>2883.5</ele><time>2026-05-14T05:47:26Z</time></trkpt>
      <trkpt lat="32.288331" lon="77.210256"><ele>2884.5</ele><time>2026-05-14T05:47:28Z</time></trkpt>
      <trkpt lat="32.288469" lon="77.210230"><ele>2885.5</ele><time>2026-05-14T05:47:30Z</time></trkpt>
      <trkpt lat="32.288607" lon="77.210193"><ele>2886.5</ele><time>2026-05-14T05:47:32Z</time></trkpt>
      <trkpt lat="32.288741" lon="77.210145"><ele>2887.5</ele><time>2026-05-14T05:47:34Z</time></trkpt>
      <trkpt lat="32.288872" lon="77.210087"><ele>2888.7</ele><time>2026-05-14T05:47:36Z</time></trkpt>
      <trkpt lat="32.289000" lon="77.210018"><ele>2889.8</ele><time>2026-05-14T05:47:38Z</time></trkpt>
      <trkpt lat="32.289122" lon="77.209940"><ele>2891.0</ele><time>2026-05-14T05:47:40Z</time></trkpt>
      <trkpt lat="32.289240" lon="77.209854"><ele>2892.3</ele><time>2026-05-14T05:47:42Z</time></trkpt>
      <trkpt lat="32.289352" lon="77.209759"><ele>2893.6</ele><time>2026-05-14T05:47:44Z</time></trkpt>
      <trkpt lat="32.289459" lon="77.209658"><ele>2895.0</ele><time>2026-05-14T05:47:46Z</time></trkpt>
      <trkpt lat="32.289561" lon="77.209550"><ele>2896.5</ele><time>2026-05-14T05:47:48Z</time></trkpt>
      <trkpt lat="32.289659" lon="77.209438"><ele>2898.0</ele><time>2026-05-14T05:47:50Z</time></trkpt>
      <trkpt lat="32.289754" lon="77.209322"><ele>2899.6</ele><time>2026-05-14T05:47:52Z</time></trkpt>
      <trkpt lat="32.289845" lon="77.209203"><ele>2901.3</ele><time>2026-05-14T05:47:54Z</time></trkpt>
      <trkpt lat="32.289935" lon="77.209082"><ele>2903.0</ele><time>2026-05-14T05:47:56Z</time></trkpt>
      <trkpt lat="32.290024" lon="77.208959"><ele>2904.8</ele><time>2026-05-14T05:47:58Z</time></trkpt>
      <trkpt lat="32.290114" lon="77.208836"><ele>2906.6</ele><time>2026-05-14T05:48:00Z</time></trkpt>
      <trkpt lat="32.290204" lon="77.208713"><ele>2908.5</ele><time>2026-05-14T05:48:02Z</time></trkpt>
      <trkpt lat="32.290298" lon="77.208592"><ele>2910.5</ele><time>2026-05-14T05:48:04Z</time></trkpt>
      <trkpt lat="32.290395" lon="77.208472"><ele>2912.5</ele><time>2026-05-14T05:48:06Z</time></trkpt>
      <trkpt lat="32.290496" lon="77.208356"><ele>2914.6</ele><time>2026-05-14T05:48:08Z</time></trkpt>
      <trkpt lat="32.290603" lon="77.208244"><ele>2916.7</ele><time>2026-05-14T05:48:10Z</time></trkpt>
      <trkpt lat="32.290715" lon="77.208136"><ele>2918.9</ele><time>2026-05-14T05:48:12Z</time></trkpt>
      <trkpt lat="32.290833" lon="77.208035"><ele>2921.1</ele><time>2026-05-14T05:48:14Z</time></trkpt>
      <trkpt lat="32.290958" lon="77.207940"><ele>2923.3</ele><time>2026-05-14T05:48:16Z</time></trkpt>
      <trkpt lat="32.291089" lon="77.207854"><ele>2925.6</ele><time>2026-05-14T05:48:18Z</time></trkpt>
      <trkpt lat="32.291225" lon="77.207776"><ele>2927.9</ele><time>2026-05-14T05:48:20Z</time></trkpt>
      <trkpt lat="32.291367" lon="77.207708"><ele>2930.2</ele><time>2026-05-14T05:48:22Z</time></trkpt>
      <trkpt lat="32.291514" lon="77.207650"><ele>2932.5</ele><time>2026-05-14T05:48:24Z</time></trkpt>
      <trkpt lat="32.291664" lon="77.207602"><ele>2934.9</ele><time>2026-05-14T05:48:26Z</time></trkpt>
      <trkpt lat="32.291818" lon="77.207564"><ele>2937.2</ele><time>2026-05-14T05:48:28Z</time></trkpt>
      <trkpt lat="32.291974" lon="77.207537"><ele>2939.5</ele><time>2026-05-14T05:48:30Z</time></trkpt>
      <trkpt lat="32.292132" lon="77.207520"><ele>2941.8</ele><time>2026-05-14T05:48:32Z</time></trkpt>
      <trkpt lat="32.292291" lon="77.207512"><ele>2944.1</ele><time>2026-05-14T05:48:34Z</time></trkpt>
      <trkpt lat="32.292450" lon="77.207513"><ele>2946.4</ele><time>2026-05-14T05:48:36Z</time></trkpt>
      <trkpt lat="32.292610" lon="77.207522"><ele>2948.6</ele><time>2026-05-14T05:48:38Z</time></trkpt>
      <trkpt lat="32.292768" lon="77.207538"><ele>2950.8</ele><time>2026-05-14T05:48:40Z</time></trkpt>
      <trkpt lat="32.292927" lon="77.207560"><ele>2953.0</ele><time>2026-05-14T05:48:42Z</time></trkpt>
      <trkpt lat="32.293084" lon="77.207587"><ele>2955.1</ele><time>2026-05-14T05:48:44Z</time></trkpt>
      <trkpt lat="32.293241" lon="77.207619"><ele>2957.1</ele><time>2026-05-14T05:48:46Z</time></trkpt>
      <trkpt lat="32.293397" lon="77.207653"><ele>2959.2</ele><time>2026-05-14T05:48:48Z</time></trkpt>
      <trkpt lat="32.293553" lon="77.207689"><ele>2961.1</ele><time>2026-05-14T05:48:50Z</time></trkpt>
      <trkpt lat="32.293708" lon="77.207727"><ele>2963.0</ele><time>2026-05-14T05:48:52Z</time></trkpt>
      <trkpt lat="32.293864" lon="77.207765"><ele>2964.9</ele><time>2026-05-14T05:48:54Z</time></trkpt>
      <trkpt lat="32.294019" lon="77.207802"><ele>2966.6</ele><time>2026-05-14T05:48:56Z</time></trkpt>
      <trkpt lat="32.294175" lon="77.207839"><ele>2968.4</ele><time>2026-05-14T05:48:58Z</time></trkpt>
      <trkpt lat="32.294331" lon="77.207873"><ele>2970.0</ele><time>2026-05-14T05:49:00Z</time></trkpt>
      <trkpt lat="32.294487" lon="77.207906"><ele>2971.6</ele><time>2026-05-14T05:49:02Z</time></trkpt>
      <trkpt lat="32.294644" lon="77.207936"><ele>2973.1</ele><time>2026-05-14T05:49:04Z</time></trkpt>
      <trkpt lat="32.294801" lon="77.207963"><ele>2974.5</ele><time>2026-05-14T05:49:06Z</time></trkpt>
      <trkpt lat="32.294958" lon="77.207988"><ele>2975.9</ele><time>2026-05-14T05:49:08Z</time></trkpt>
      <trkpt lat="32.295115" lon="77.208010"><ele>2977.3</ele><time>2026-05-14T05:49:10Z</time></trkpt>
      <trkpt lat="32.295273" lon="77.208030"><ele>2978.5</ele><time>2026-05-14T05:49:12Z</time></trkpt>
      <trkpt lat="32.295430" lon="77.208049"><ele>2979.7</ele><time>2026-05-14T05:49:14Z</time></trkpt>
      <trkpt lat="32.295587" lon="77.208066"><ele>2980.9</ele><time>2026-05-14T05:49:16Z</time></trkpt>
      <trkpt lat="32.295744" lon="77.208083"><ele>2982.0</ele><time>2026-05-14T05:49:18Z</time></trkpt>
      <trkpt lat="32.295900" lon="77.208100"><ele>2983.0</ele><time>2026-05-14T05:49:20Z</time></trkpt>
      <trkpt lat="32.296056" lon="77.208118"><ele>2984.0</ele><time>2026-05-14T05:49:22Z</time></trkpt>
      <trkpt lat="32.296212" lon="77.208139"><ele>2985.0</ele><time>2026-05-14T05:49:24Z</time></trkpt>
      <trkpt lat="32.296366" lon="77.208163"><ele>2986.0</ele><time>2026-05-14T05:49:26Z</time></trkpt>
      <trkpt lat="32.296519" lon="77.208192"><ele>2986.9</ele><time>2026-05-14T05:49:28Z</time></trkpt>
      <trkpt lat="32.296671" lon="77.208225"><ele>2987.8</ele><time>2026-05-14T05:49:30Z</time></trkpt>
      <trkpt lat="32.296820" lon="77.208265"><ele>2988.7</ele><time>2026-05-14T05:49:32Z</time></trkpt>
      <trkpt lat="32.296967" lon="77.208312"><ele>2989.5</ele><time>2026-05-14T05:49:34Z</time></trkpt>
      <trkpt lat="32.297111" lon="77.208367"><ele>2990.4</ele><time>2026-05-14T05:49:36Z</time></trkpt>
      <trkpt lat="32.297251" lon="77.208430"><ele>2991.3</ele><time>2026-05-14T05:49:38Z</time></trkpt>
      <trkpt lat="32.297385" lon="77.208503"><ele>2992.2</ele><time>2026-05-14T05:49:40Z</time></trkpt>
      <trkpt lat="32.297514" lon="77.208584"><ele>2993.1</ele><time>2026-05-14T05:49:42Z</time></trkpt>
      <trkpt lat="32.297635" lon="77.208675"><ele>2994.0</ele><time>2026-05-14T05:49:44Z</time></trkpt>
      <trkpt lat="32.297748" lon="77.208774"><ele>2995.0</ele><time>2026-05-14T05:49:46Z</time></trkpt>
      <trkpt lat="32.297853" lon="77.208883"><ele>2995.9</ele><time>2026-05-14T05:49:48Z</time></trkpt>
      <trkpt lat="32.297947" lon="77.208998"><ele>2996.9</ele><time>2026-05-14T05:49:50Z</time></trkpt>
      <trkpt lat="32.298032" lon="77.209121"><ele>2998.0</ele><time>2026-05-14T05:49:52Z</time></trkpt>
      <trkpt lat="32.298106" lon="77.209250"><ele>2999.1</ele><time>2026-05-14T05:49:54Z</time></trkpt>
      <trkpt lat="32.298169" lon="77.209383"><ele>3000.3</ele><time>2026-05-14T05:49:56Z</time></trkpt>
      <trkpt lat="32.298221" lon="77.209520"><ele>3001.5</ele><time>2026-05-14T05:49:58Z</time></trkpt>
      <trkpt lat="32.298263" lon="77.209660"><ele>3002.7</ele><time>2026-05-14T05:50:00Z</time></trkpt>
    </trkseg>
  </trk>
</gpx>
